[{"OBJECT_NAME":"OBJECT D","OBJECT_ID":"2024-173D","EPOCH":"2026-03-09T23:30:29.956896","MEAN_MOTION":15.27005733,"ECCENTRICITY":0.00090093,"INCLINATION":97.3606,"RA_OF_ASC_NODE":149.3901,"ARG_OF_PERICENTER":241.6081,"MEAN_ANOMALY":118.425,"EPHEMERIS_TYPE":0,"CLASSIFICATION_TYPE":"U","NORAD_CAT_ID":61230,"ELEMENT_SET_NO":999,"REV_AT_EPOCH":8130,"BSTAR":0.00072064626,"MEAN_MOTION_DOT":0.00019078,"MEAN_MOTION_DDOT":0},{"OBJECT_NAME":"STARLINK-36412","OBJECT_ID":"2026-012AB","EPOCH":"2026-03-09T00:36:39.502080","MEAN_MOTION":15.27589895,"ECCENTRICITY":0.00070431,"INCLINATION":43.0014,"RA_OF_ASC_NODE":317.8493,"ARG_OF_PERICENTER":233.6209,"MEAN_ANOMALY":126.3993,"EPHEMERIS_TYPE":0,"CLASSIFICATION_TYPE":"U","NORAD_CAT_ID":67518,"ELEMENT_SET_NO":999,"REV_AT_EPOCH":766,"BSTAR":0.0010901534,"MEAN_MOTION_DOT":0.00029885,"MEAN_MOTION_DDOT":0}]
